KUIPER-00008            
1 63724U 25088A   25317.85871662  .00020243  00000+0  16232-2 0  9992
2 63724  51.8907 255.0372 0011594  77.3380 282.8887 15.00029312 30689
KUIPER-00009            
1 63725U 25088B   25317.82931420  .00010334  00000+0  13680-2 0  9993
2 63725  51.9008 258.8954 0013464  75.2016 285.0438 14.80326264 30625
KUIPER-00010            
1 63726U 25088C   25317.48721649  .00009203  00000+0  12256-2 0  9997
2 63726  51.9001 236.9113 0012337 117.3449 242.8770 14.80203896 30523
KUIPER-00011            
1 63727U 25088D   25317.37911040  .00019879  00000+0  26498-2 0  9995
2 63727  51.9002 244.9825 0014643  90.8926 269.3714 14.79532602 30532
KUIPER-00012            
1 63728U 25088E   25318.00002315 -.01882099  00000+0 -16884+0 0  9993
2 63728  51.8846 226.0035 0009978 105.3990 293.4641 14.99160938  4821
KUIPER-00013            
1 63729U 25088F   25317.83307899  .00004116  00000+0  56772-3 0  9996
2 63729  51.9004 260.3978 0008981  13.3423 346.7776 14.79992463 30417
KUIPER-00014            
1 63730U 25088G   25317.56141935  .00018151  00000+0  23994-2 0  9998
2 63730  51.9018 262.5696 0009451  68.9546 291.2426 14.79981024 30170
KUIPER-00015            
1 63731U 25088H   25317.90898256  .00015545  00000+0  19781-2 0  9995
2 63731  51.8986 272.4120 0010863  56.9568 303.2438 14.81676344 30521
